NORAD_CAT_ID,OBJECT_NAME,OBJECT_TYPE,EPOCH,MEAN_MOTION,ECCENTRICITY,INCLINATION,RA_OF_ASC_NODE,ARG_OF_PERICENTER,MEAN_ANOMALY,BSTAR,MEAN_MOTION_DOT,MEAN_MOTION_DDOT,TLE_LINE0,TLE_LINE1,TLE_LINE2,SEMIMAJOR_AXIS,PERIOD,APOGEE,PERIGEE,DECAYED
54807.0,STARLINK-5410,PAYLOAD,2024-04-08 18:57:22,15.08841645,0.0001206,53.2155,290.724,91.9793,268.1337,0.00010172,1.331e-05,0.0,0 STARLINK-5410,1 54807U 22175BB  24099.78984445  .00001331  00000-0  10172-3 0  9996,2 54807  53.2155 290.7240 0001206  91.9793 268.1337 15.08841645 74472,6917.875,95.437,540.575,538.906,0.0
54807.0,STARLINK-5410,PAYLOAD,2024-04-09 12:26:37,15.08841068,0.0001076,53.2174,287.4528,97.8148,262.2966,0.00012493,1.701e-05,0.0,0 STARLINK-5410,1 54807U 22175BB  24100.51848469  .00001701  00000-0  12493-3 0  9994,2 54807  53.2174 287.4528 0001076  97.8148 262.2966 15.08841068 72424,6917.877,95.437,540.486,538.998,0.0
54807.0,STARLINK-5410,PAYLOAD,2024-04-09 18:48:09,15.08843434,0.0001144,53.2173,286.2646,87.9595,272.1528,0.00010609,1.401e-05,0.0,0 STARLINK-5410,1 54807U 22175BB  24100.78344427  .00001401  00000-0  10609-3 0  9992,2 54807  53.2173 286.2646 0001144  87.9595 272.1528 15.08843434 74620,6917.87,95.437,540.526,538.943,0.0
54807.0,STARLINK-5410,PAYLOAD,2024-04-10 05:55:51,15.08842773,0.0001052,53.2161,284.1813,93.5989,266.5124,9.5553e-05,1.233e-05,0.0,0 STARLINK-5410,1 54807U 22175BB  24101.24712404  .00001233  00000-0  95553-4 0  9993,2 54807  53.2161 284.1813 0001052  93.5989 266.5124 15.08842773 74699,6917.872,95.437,540.465,539.009,0.0
54807.0,STARLINK-5410,PAYLOAD,2024-04-10 18:38:56,15.08840638,0.0001271,53.2141,281.8037,79.313,280.8006,5.481e-05,5.85e-06,0.0,0 STARLINK-5410,1 54807U 22175BB  24101.77704643  .00000585  00000-0  54810-4 0  9997,2 54807  53.2141 281.8037 0001271  79.3130 280.8006 15.08840638 72618,6917.878,95.438,540.623,538.864,0.0
54807.0,STARLINK-5410,PAYLOAD,2024-04-10 21:49:42,15.0884855,8.56e-05,53.2177,281.2086,77.7335,282.3753,0.00011607,1.56e-05,0.0,0 STARLINK-5410,1 54807U 22175BB  24101.90951986  .00001560  00000-0  11607-3 0  9996,2 54807  53.2177 281.2086 0000856  77.7335 282.3753 15.08848550 74790,6917.854,95.437,540.311,539.127,0.0
54807.0,STARLINK-5410,PAYLOAD,2024-04-11 18:29:43,15.08844178,0.0001008,53.217,277.3409,83.0623,277.0484,7.6738e-05,9.34e-06,0.0,0 STARLINK-5410,1 54807U 22175BB  24102.77064393  .00000934  00000-0  76738-4 0  9990,2 54807  53.2170 277.3409 0001008  83.0623 277.0484 15.08844178 72767,6917.868,95.437,540.43,539.035,0.0
54807.0,STARLINK-5410,PAYLOAD,2024-04-12 11:58:58,15.08835424,0.0001144,53.2179,274.0728,78.3901,281.722,7.1079e-05,8.43e-06,0.0,0 STARLINK-5410,1 54807U 22175BB  24103.49929078  .00000843  00000-0  71079-4 0  9992,2 54807  53.2179 274.0728 0001144  78.3901 281.7220 15.08835424 72877,6917.894,95.438,540.551,538.968,0.0
54807.0,STARLINK-5410,PAYLOAD,2024-04-12 15:09:45,15.08834242,0.0001194,53.2177,273.4778,91.5719,268.541,8.0857e-05,9.99e-06,0.0,0 STARLINK-5410,1 54807U 22175BB  24103.63177194  .00000999  00000-0  80857-4 0  9998,2 54807  53.2177 273.4778 0001194  91.5719 268.5410 15.08834242 75056,6917.898,95.438,540.589,538.937,0.0
54807.0,STARLINK-5410,PAYLOAD,2024-04-13 16:35:55,15.08838004,0.0001257,53.2176,268.7201,84.3774,275.7362,4.597e-05,4.44e-06,0.0,0 STARLINK-5410,1 54807U 22175BB  24104.69161328  .00000444  00000-0  45970-4 0  9999,2 54807  53.2176 268.7201 0001257  84.3774 275.7362 15.08838004 73058,6917.886,95.438,540.621,538.882,0.0
54807.0,STARLINK-5410,PAYLOAD,2024-04-14 16:26:42,15.08841672,0.0001272,53.2184,264.2601,78.757,281.3565,0.00013586,1.875e-05,0.0,0 STARLINK-5410,1 54807U 22175BB  24105.68521270  .00001875  00000-0  13586-3 0  9991,2 54807  53.2184 264.2601 0001272  78.7570 281.3565 15.08841672 75369,6917.875,95.437,540.62,538.86,0.0
54807.0,STARLINK-5410,PAYLOAD,2024-04-15 19:28:15,15.08851034,0.0001534,53.2191,259.2079,69.873,290.2427,0.00020093,2.912e-05,0.0,0 STARLINK-5410,1 54807U 22175BB  24106.81128570  .00002912  00000-0  20093-3 0  9997,2 54807  53.2191 259.2079 0001534  69.8730 290.2427 15.08851034 73378,6917.847,95.437,540.773,538.65,0.0
54807.0,STARLINK-5410,PAYLOAD,2024-04-16 09:46:43,15.08846271,0.0001648,53.2148,256.5296,80.1895,279.9283,1.1354e-05,-1.07e-06,0.0,0 STARLINK-5410,1 54807U 22175BB  24107.40744924 -.00000107  00000-0  11354-4 0  9996,2 54807  53.2148 256.5296 0001648  80.1895 279.9283 15.08846271 73466,6917.861,95.437,540.866,538.586,0.0
54807.0,STARLINK-5410,PAYLOAD,2024-04-16 14:32:53,15.08849212,0.0001749,53.2166,255.6374,67.9142,292.2035,3.1419e-05,2.12e-06,0.0,0 STARLINK-5410,1 54807U 22175BB  24107.60616959  .00000212  00000-0  31419-4 0  9994,2 54807  53.2166 255.6374 0001749  67.9142 292.2035 15.08849212 75657,6917.852,95.437,540.927,538.507,0.0
54807.0,STARLINK-5410,PAYLOAD,2024-04-16 16:08:15,15.08851882,0.0001,53.2138,255.3372,87.9665,272.1442,3.0844e-06,-2.39e-06,0.0,0 STARLINK-5410,1 54807U 22175BB  24107.67240558 -.00000239  00000-0  30844-5 0  9991,2 54807  53.2138 255.3372 0001000  87.9665 272.1442 15.08851882 75669,6917.844,95.437,540.401,539.017,0.0
54807.0,STARLINK-5410,PAYLOAD,2024-04-17 12:48:17,15.08837662,0.0001575,53.2167,251.4742,78.719,281.3979,-5.1659e-05,-1.11e-05,0.0,0 STARLINK-5410,1 54807U 22175BB  24108.53353853 -.00001110  00000-0 -51659-4 0  9996,2 54807  53.2167 251.4742 0001575  78.7190 281.3979 15.08837662 73639,6917.888,95.438,540.842,538.663,0.0
54807.0,STARLINK-5410,PAYLOAD,2024-04-17 14:23:40,15.0883832,0.0001655,53.2173,251.1769,76.9847,283.133,-4.8563e-05,-1.061e-05,0.0,0 STARLINK-5410,1 54807U 22175BB  24108.59977813 -.00001061  00000-0 -48563-4 0  9995,2 54807  53.2173 251.1769 0001655  76.9847 283.1330 15.08838320 75804,6917.886,95.438,540.895,538.606,0.0
54807.0,STARLINK-5410,PAYLOAD,2024-04-17 15:59:03,15.08836102,0.0001792,53.2181,250.8783,94.4349,265.6848,4.9188e-05,4.95e-06,0.0,0 STARLINK-5410,1 54807U 22175BB  24108.66601618  .00000495  00000-0  49188-4 0  9992,2 54807  53.2181 250.8783 0001792  94.4349 265.6848 15.08836102 75815,6917.892,95.438,540.997,538.518,0.0
54807.0,STARLINK-5410,PAYLOAD,2024-04-18 12:39:04,15.08839047,0.0001659,53.2155,247.0127,76.0233,284.0943,0.00013386,1.843e-05,0.0,0 STARLINK-5410,1 54807U 22175BB  24109.52713877  .00001843  00000-0  13386-3 0  9997,2 54807  53.2155 247.0127 0001659  76.0233 284.0943 15.08839047 75942,6917.883,95.438,540.896,538.601,0.0
54807.0,STARLINK-5410,PAYLOAD,2024-04-18 15:49:50,15.08845448,0.0001653,53.2154,246.4183,68.9441,291.1728,0.00019746,2.856e-05,0.0,0 STARLINK-5410,1 54807U 22175BB  24109.65961606  .00002856  00000-0  19746-3 0  9997,2 54807  53.2154 246.4183 0001653  68.9441 291.1728 15.08845448 73806,6917.864,95.437,540.872,538.585,0.0
54807.0,STARLINK-5410,PAYLOAD,2024-04-19 12:29:51,15.08841936,0.0001557,53.2161,242.5538,71.826,288.2902,0.00020246,2.936e-05,0.0,0 STARLINK-5410,1 54807U 22175BB  24110.52074013  .00002936  00000-0  20246-3 0  9998,2 54807  53.2161 242.5538 0001557  71.8260 288.2902 15.08841936 73933,6917.874,95.437,540.817,538.662,0.0
54807.0,STARLINK-5410,PAYLOAD,2024-04-19 14:05:14,15.0884539,0.0001672,53.216,242.2564,79.0071,281.1109,0.00024153,3.559e-05,0.0,0 STARLINK-5410,1 54807U 22175BB  24110.58697839  .00003559  00000-0  24153-3 0  9994,2 54807  53.2160 242.2564 0001672  79.0071 281.1109 15.08845390 76107,6917.864,95.437,540.886,538.572,0.0
54807.0,STARLINK-5410,PAYLOAD,2024-04-19 15:40:37,15.08854729,0.0001806,53.2174,241.9535,106.5346,253.5845,0.00037505,5.688e-05,0.0,0 STARLINK-5410,1 54807U 22175BB  24110.65321246  .00005688  00000-0  37505-3 0  9998,2 54807  53.2174 241.9535 0001806 106.5346 253.5845 15.08854729 73952,6917.835,95.437,540.95,538.451,0.0
54807.0,STARLINK-5410,PAYLOAD,2024-04-20 13:56:03,15.08796615,0.0001739,53.2171,237.7907,83.5939,276.5252,-0.00079155,-0.00012849,0.0,0 STARLINK-5410,1 54807U 22175BB  24111.58059216 -.00012849  00000-0 -79155-3 0  9992,2 54807  53.2171 237.7907 0001739  83.5939 276.5252 15.08796615 76254,6918.013,95.44,541.081,538.675,0.0
54807.0,STARLINK-5410,PAYLOAD,2024-04-20 18:42:12,15.0879657,0.0001623,53.2174,236.8982,87.7678,272.35,-0.00073771,-0.00011996,0.0,0 STARLINK-5410,1 54807U 22175BB  24111.77931577 -.00011996  00000-0 -73771-3 0  9992,2 54807  53.2174 236.8982 0001623  87.7678 272.3500 15.08796570 74122,6918.013,95.44,541.001,538.755,0.0
54807.0,STARLINK-5410,PAYLOAD,2024-04-21 13:46:49,15.08841428,0.0002766,53.2179,233.3302,136.9468,223.174,8.9286e-05,1.133e-05,0.0,0 STARLINK-5410,1 54807U 22175BB  24112.57417942  .00001133  00000-0  89286-4 0  9995,2 54807  53.2179 233.3302 0002766 136.9468 223.1740 15.08841428 76404,6917.876,95.437,541.655,537.828,0.0
54807.0,STARLINK-5410,PAYLOAD,2024-04-21 18:32:58,15.08853178,0.0001579,53.2176,232.4388,104.0225,256.0943,0.00042174,6.433e-05,0.0,0 STARLINK-5410,1 54807U 22175BB  24112.77289925  .00006433  00000-0  42174-3 0  9997,2 54807  53.2176 232.4388 0001579 104.0225 256.0943 15.08853178 74271,6917.84,95.437,540.797,538.613,0.0
54807.0,STARLINK-5410,PAYLOAD,2024-04-22 16:48:21,15.08864465,0.0001552,53.2174,228.2755,112.7062,247.4095,0.00043368,6.625e-05,0.0,0 STARLINK-5410,1 54807U 22175BB  24113.70025311  .00006625  00000-0  43368-3 0  9997,2 54807  53.2174 228.2755 0001552 112.7062 247.4095 15.08864465 74415,6917.806,95.436,540.744,538.597,0.0
54807.0,STARLINK-5410,PAYLOAD,2024-04-23 11:53:01,15.08829348,0.0001649,53.2176,224.7077,107.3873,252.73,-0.00026282,-4.467e-05,0.0,0 STARLINK-5410,1 54807U 22175BB  24114.49515822 -.00004467  00000-0 -26282-3 0  9995,2 54807  53.2176 224.7077 0001649 107.3873 252.7300 15.08829348 74534,6917.913,95.438,540.919,538.637,0.0
54807.0,STARLINK-5410,PAYLOAD,2024-04-23 13:28:24,15.08827773,0.0001732,53.2177,224.4115,94.7194,265.3995,-0.00026596,-4.517e-05,0.0,0 STARLINK-5410,1 54807U 22175BB  24114.56140027 -.00004517  00000-0 -26596-3 0  9998,2 54807  53.2177 224.4115 0001732  94.7194 265.3995 15.08827773 76704,6917.918,95.438,540.981,538.585,0.0
